GLOBALSTAR M001         
1 25162U 98008A   25105.90082282 -.00000034  00000+0  48044-3 0  9995
2 25162  52.0012 154.5143 0001752 125.2152  45.5581 12.38212809235996
GLOBALSTAR M004         
1 25163U 98008B   25105.83290649 -.00000077  00000+0  14932-3 0  9992
2 25163  51.9994 244.3787 0003703 145.4412  10.6245 12.63393556253804
GLOBALSTAR M002         
1 25164U 98008C   25105.77368951 -.00000057  00000+0  38524-3 0  9999
2 25164  52.0042  36.6919 0001848  39.2844 320.8110 11.61509094176812
GLOBALSTAR M003         
1 25165U 98008D   25106.37847973 -.00000072  00000+0  18823-3 0  9990
2 25165  52.0029 339.7060 0008144 163.9039   7.6629 12.12076476225819
GLOBALSTAR M014         
1 25306U 98023A   25106.31412633 -.00000056  00000+0  39947-3 0  9991
2 25306  51.9857 319.8681 0000413 196.8046 334.6031 11.65479534183941
GLOBALSTAR M006         
1 25307U 98023B   25106.44715056 -.00000051  00000+0  51136-3 0  9990
2 25307  51.9984   9.6938 0003504   2.7924 168.4115 11.58174217209785
GLOBALSTAR M015         
1 25308U 98023C   25106.10711125 -.00000075  00000+0 -43958-4 0  9998
2 25308  51.9793 106.1655 0012562 325.3624 117.9153 11.48858602187319
GLOBALSTAR M008         
1 25309U 98023D   25105.97352708 -.00000045  00000+0  39840-3 0  9991
2 25309  51.9999  18.4267 0003181  49.5494  31.3777 12.36066673230158
